{"type": "FeatureCollection", "crs": {"type": "name", "properties": {"name": "EPSG:4326"}}, "features": [{"type": "Feature", "id": 1131, "geometry": {"type": "Polygon", "coordinates": [[[-0.0370382095409806, 51.5242483882287], [-0.04088615744126, 51.5226967304464], [-0.0500128985354715, 51.5210699860445], [-0.0563504806561444, 51.5198335574931], [-0.0561783309427876, 51.5209646148638], [-0.0549626529256037, 51.5230037869881], [-0.0548751833310494, 51.5241101732944], [-0.0558309543165325, 51.5293192629948], [-0.0521932917934931, 51.5303325196952], [-0.0490393631095416, 51.533654145972], [-0.0462853963531179, 51.5327441443526], [-0.0429345439371828, 51.5310966536572], [-0.0392136332407141, 51.526290972823], [-0.0370382095409806, 51.5242483882287]]]}, "properties": {"FID": 1131, "WD24CD": "E05009317", "WD24NM": "Bethnal Green East", "WD24NMW": " ", "LAD24CD": "E09000030", "LAD24NM": "Tower Hamlets", "LAD24NMW": " ", "BNG_E": 535607, "BNG_N": 182735, "LONG": -0.04654, "LAT": 51.52725, "Shape__Area": 1209072.4639968872, "Shape__Length": 4596.969490075305, "GlobalID": "f73b870c-8bea-492c-94e7-e3774f296f4a"}}, {"type": "Feature", "id": 1132, "geometry": {"type": "Polygon", "coordinates": [[[-0.00309167952330675, 51.4907755781777], [-0.00471559299789183, 51.4907440573037], [-0.00585034392698747, 51.4909503591402], [-0.00561621569513294, 51.4916281106094], [-0.00696080862986306, 51.4929675097141], [-0.00784451797977861, 51.4924582149246], [-0.00969869125179311, 51.4930499783458], [-0.0105416947306344, 51.4936704107021], [-0.0116009016676033, 51.4932981095755], [-0.0173279255127327, 51.4935155644022], [-0.0165114831027305, 51.4999730804933], [-0.0162060348066811, 51.499940850074], [-0.0154326968025927, 51.5041401395706], [-0.0127360373851819, 51.5043552656559], [-0.0118428219707075, 51.5049120921109], [-0.0106418827150452, 51.5060490580298], [-0.0106443987539201, 51.5073485821298], [-0.00545069223316993, 51.5079447689016], [-0.00383577886633746, 51.5087230048775], [-0.00184399453912367, 51.5104706460264], [0.00177541246975129, 51.5109451476781], [0.00175883497526898, 51.510912237051], [0.00280785452065839, 51.5103858277281], [0.00432737876803565, 51.510595471271], [0.00553760667686258, 51.5135222730904], [0.0059403026777042, 51.5139290656349], [0.00669456548252087, 51.5139237964977], [0.00739341384163838, 51.5127275294519], [0.00558282068597942, 51.5100263106602], [0.00635103256875777, 51.5093728495367], [0.00895751436619348, 51.5088380741335], [0.0087897328377628, 51.5073679025731], [0.00580107429831246, 51.5082652071514], [0.00367595982686936, 51.5083799115911], [0.00346977847862123, 51.5080165215598], [0.00298993482783094, 51.508237137481], [-0.0017330928547502, 51.5074758266721], [-0.00343337058191878, 51.5066234807808], [-0.00539069761020905, 51.5050317603124], [-0.00577379065589522, 51.5051354033132], [-0.00558967458971964, 51.5047981793167], [-0.00721926752372769, 51.5031185659446], [-0.00750611574036416, 51.5020011537754], [-0.00763334663062979, 51.5015055083589], [-0.00865742714048288, 51.5013488954759], [-0.00774251086436032, 51.5008036581729], [-0.00727732854927773, 51.498307425659], [-0.00695595254179034, 51.4983424299207], [-0.00560596663949319, 51.4958365491166], [-0.00621228535749718, 51.4956103503868], [-0.00542398197608864, 51.4946437012692], [-0.00475993339176973, 51.4945429236885], [-0.00329912591540556, 51.492270748125], [-0.00305835383201672, 51.4908758583519], [-0.00309167952330675, 51.4907755781777]]]}, "properties": {"FID": 1132, "WD24CD": "E05009318", "WD24NM": "Blackwall & Cubitt Town", "WD24NMW": " ", "LAD24CD": "E09000030", "LAD24NM": "Tower Hamlets", "LAD24NMW": " ", "BNG_E": 538100, "BNG_N": 180056, "LONG": -0.01167, "LAT": 51.50258, "Shape__Area": 1352521.6176452637, "Shape__Length": 8655.388701929023, "GlobalID": "1ec07eb6-98c4-4f76-9769-74dd489289fc"}}, {"type": "Feature", "id": 1133, "geometry": {"type": "Polygon", "coordinates": [[[-0.016549676137034, 51.543329866783], [-0.0160914222675856, 51.5424768205726], [-0.0165950088188554, 51.5413902653313], [-0.0176990535501777, 51.540956854853], [-0.0178585067039408, 51.5401748296542], [-0.0188858206435576, 51.5393410351726], [-0.0194459919845924, 51.5382541523751], [-0.0212678337033492, 51.537007401385], [-0.0209533848689064, 51.5362839232834], [-0.0196630017758413, 51.53558511685], [-0.0189479456359201, 51.5341390431197], [-0.0180712274677356, 51.5334388795995], [-0.0180112178111926, 51.5322223572861], [-0.0171472640301074, 51.531315223323], [-0.0136822637916931, 51.5298465466927], [-0.0179105490412379, 51.5283100043319], [-0.0210107899170071, 51.5279297040512], [-0.0227921068748026, 51.5303751829207], [-0.0298770848699528, 51.5294044188513], [-0.0325440520776642, 51.5324876960333], [-0.0340456477694103, 51.5349480825006], [-0.0336339624187724, 51.5350661514219], [-0.0349336805339942, 51.5366274667133], [-0.0371592829471217, 51.5379856994865], [-0.0407379137152159, 51.5381186562258], [-0.0374213185800631, 51.5412814848204], [-0.0371437136784512, 51.5414166108775], [-0.0377336189286635, 51.5417985078125], [-0.0331911146315964, 51.5446857163683], [-0.0295535275710296, 51.5430909967655], [-0.0289910688237788, 51.5422729755855], [-0.0255845560641751, 51.5433389605769], [-0.0198528971615672, 51.543582851157], [-0.016549676137034, 51.543329866783]]]}, "properties": {"FID": 1133, "WD24CD": "E05009319", "WD24NM": "Bow East", "WD24NMW": " ", "LAD24CD": "E09000030", "LAD24NM": "Tower Hamlets", "LAD24NMW": " ", "BNG_E": 536928, "BNG_N": 183769, "LONG": -0.02711, "LAT": 51.53623, "Shape__Area": 1868249.286026001, "Shape__Length": 6838.4578244645045, "GlobalID": "08e5bd59-ea40-44c4-8201-fa087780fe17"}}, {"type": "Feature", "id": 1134, "geometry": {"type": "Polygon", "coordinates": [[[-0.0210107899170071, 51.5279297040512], [-0.0301668167030409, 51.526099941476], [-0.0370382095409806, 51.5242483882287], [-0.0392136332407141, 51.526290972823], [-0.0429345439371828, 51.5310966536572], [-0.0462853963531179, 51.5327441443526], [-0.0490393631095416, 51.533654145972], [-0.0528564510841317, 51.534938715867], [-0.0523769045393786, 51.5359310318297], [-0.05091293600747, 51.5364617048636], [-0.0497007576085603, 51.5363466092268], [-0.0471597768522713, 51.5354487752517], [-0.0449632628777945, 51.5357814762523], [-0.0414935933938469, 51.5374425614696], [-0.0407379137152159, 51.5381186562258], [-0.0371592829471217, 51.5379856994865], [-0.0349336805339942, 51.5366274667133], [-0.0336339624187724, 51.5350661514219], [-0.0340456477694103, 51.5349480825006], [-0.0325440520776642, 51.5324876960333], [-0.0298770848699528, 51.5294044188513], [-0.0227921068748026, 51.5303751829207], [-0.0210107899170071, 51.5279297040512]]]}, "properties": {"FID": 1134, "WD24CD": "E05009320", "WD24NM": "Bow West", "WD24NMW": " ", "LAD24CD": "E09000030", "LAD24NM": "Tower Hamlets", "LAD24NMW": " ", "BNG_E": 536261, "BNG_N": 183181, "LONG": -0.03694, "LAT": 51.5311, "Shape__Area": 1358472.1010665894, "Shape__Length": 6115.11302917192, "GlobalID": "5afe07ab-547b-4acd-a6f6-7454eccb7871"}}, {"type": "Feature", "id": 1135, "geometry": {"type": "Polygon", "coordinates": [[[-0.00776274195722487, 51.5253940846822], [-0.00781941561658298, 51.5253226555423], [-0.0133939493671424, 51.5244611736802], [-0.0210185411379038, 51.5244955139075], [-0.0226125269603438, 51.5240718801202], [-0.023938744655182, 51.5231751518591], [-0.0252617697577737, 51.5250472277863], [-0.0290519094447162, 51.5240767951906], [-0.0301668167030409, 51.526099941476], [-0.0210107899170071, 51.5279297040512], [-0.0179105490412379, 51.5283100043319], [-0.0136822637916931, 51.5298465466927], [-0.0106879295018272, 51.5292813245902], [-0.010267401705797, 51.5284820738619], [-0.00864083527791054, 51.5275562097429], [-0.00756245484960945, 51.5262758842562], [-0.00776274195722487, 51.5253940846822]]]}, "properties": {"FID": 1135, "WD24CD": "E05009321", "WD24NM": "Bromley North", "WD24NMW": " ", "LAD24CD": "E09000030", "LAD24NM": "Tower Hamlets", "LAD24NMW": " ", "BNG_E": 537617, "BNG_N": 182704, "LONG": -0.01759, "LAT": 51.52649, "Shape__Area": 600057.9475402832, "Shape__Length": 3891.6394117491154, "GlobalID": "3281cf5f-2270-48ec-8ae0-3467713e1089"}}, {"type": "Feature", "id": 1136, "geometry": {"type": "Polygon", "coordinates": [[[-0.0080903401132746, 51.5238353110294], [-0.00907384575132481, 51.522404971813], [-0.0116108222491926, 51.5206890578076], [-0.0216115686658594, 51.51657123087], [-0.0237146564515956, 51.5192307300779], [-0.027313657581791, 51.5207355455965], [-0.023938744655182, 51.5231751518591], [-0.0226125269603438, 51.5240718801202], [-0.0210185411379038, 51.5244955139075], [-0.0133939493671424, 51.5244611736802], [-0.00781941561658298, 51.5253226555423], [-0.0080903401132746, 51.5238353110294]]]}, "properties": {"FID": 1136, "WD24CD": "E05009322", "WD24NM": "Bromley South", "WD24NMW": " ", "LAD24CD": "E09000030", "LAD24NM": "Tower Hamlets", "LAD24NMW": " ", "BNG_E": 537535, "BNG_N": 182093, "LONG": -0.01901, "LAT": 51.52102, "Shape__Area": 691608.1247558594, "Shape__Length": 3603.5435086371217, "GlobalID": "70d1fb04-0f77-4418-9d37-fc4bd4fde621"}}, {"type": "Feature", "id": 1137, "geometry": {"type": "Polygon", "coordinates": [[[-0.0106443987539201, 51.5073485821298], [-0.0106418827150452, 51.5060490580298], [-0.0118428219707075, 51.5049120921109], [-0.0127360373851819, 51.5043552656559], [-0.0154326968025927, 51.5041401395706], [-0.0162060348066811, 51.499940850074], [-0.0165114831027305, 51.4999730804933], [-0.0173279255127327, 51.4935155644022], [-0.0266156557099079, 51.4939351561838], [-0.0262324584924791, 51.4940139131663], [-0.0276289987313739, 51.494251011006], [-0.0278731731712808, 51.4946849815283], [-0.0274125302329005, 51.5018126420491], [-0.0271857275401079, 51.5023337025987], [-0.0267478337706362, 51.5033396898885], [-0.0284569843197244, 51.5056666433604], [-0.0286292496668767, 51.5049914182583], [-0.0289348264330807, 51.5053931428918], [-0.0285788469674798, 51.5052842783097], [-0.0285206738069807, 51.5056636091956], [-0.0284520096483116, 51.5057186599946], [-0.0301024359120838, 51.5074231961392], [-0.0304146652410577, 51.5072417613946], [-0.0304816827257795, 51.5072778999713], [-0.0295271235992875, 51.5079013103394], [-0.0272673454975485, 51.5079064657323], [-0.0266520572003488, 51.5090040815838], [-0.0254904733157021, 51.5097371999451], [-0.0241630063026886, 51.5089765529332], [-0.0186554878557063, 51.5077738436106], [-0.0142484257635963, 51.5074141850694], [-0.0107022003817238, 51.5075762117164], [-0.0106443987539201, 51.5073485821298]]]}, "properties": {"FID": 1137, "WD24CD": "E05009323", "WD24NM": "Canary Wharf", "WD24NMW": " ", "LAD24CD": "E09000030", "LAD24NM": "Tower Hamlets", "LAD24NMW": " ", "BNG_E": 537488, "BNG_N": 179863, "LONG": -0.02056, "LAT": 51.50099, "Shape__Area": 1423815.9987487793, "Shape__Length": 5933.768591008009, "GlobalID": "e02df62f-3e43-4f82-994a-c57140fb1ce0"}}, {"type": "Feature", "id": 1138, "geometry": {"type": "Polygon", "coordinates": [[[-0.00309167952330675, 51.4907755781777], [-0.00368700295737438, 51.4889841672217], [-0.00443521156790546, 51.4882779238809], [-0.00512593818197643, 51.4886066757819], [-0.00462071387538801, 51.4881367453076], [-0.00666930272684184, 51.4870836319322], [-0.011499955393768, 51.4861402853466], [-0.0163772213541737, 51.4861418692593], [-0.0209800590719884, 51.4873290374268], [-0.0238233363380981, 51.4889462817999], [-0.0256993083395575, 51.4906952764714], [-0.0273317297290978, 51.4935121860036], [-0.0272354033521087, 51.4938077796068], [-0.0266156557099079, 51.4939351561838], [-0.0173279255127327, 51.4935155644022], [-0.0116009016676033, 51.4932981095755], [-0.0105416947306344, 51.4936704107021], [-0.00969869125179311, 51.4930499783458], [-0.00784451797977861, 51.4924582149246], [-0.00696080862986306, 51.4929675097141], [-0.00561621569513294, 51.4916281106094], [-0.00585034392698747, 51.4909503591402], [-0.00471559299789183, 51.4907440573037], [-0.00309167952330675, 51.4907755781777]]]}, "properties": {"FID": 1138, "WD24CD": "E05009324", "WD24NM": "Island Gardens", "WD24NMW": " ", "LAD24CD": "E09000030", "LAD24NM": "Tower Hamlets", "LAD24NMW": " ", "BNG_E": 537960, "BNG_N": 178641, "LONG": -0.01424, "LAT": 51.48989, "Shape__Area": 1039263.0093154907, "Shape__Length": 4450.756697133606, "GlobalID": "311799ae-b534-40e0-a333-a927babe9628"}}, {"type": "Feature", "id": 1139, "geometry": {"type": "Polygon", "coordinates": [[[-0.00786298880813318, 51.5230251459373], [-0.00863610343475222, 51.5218258570453], [-0.00935047814368256, 51.5218221083188], [-0.00916535605535765, 51.5198953123681], [-0.00672335046484916, 51.5182989806877], [-0.00597091740871718, 51.5164217079654], [-0.00513219001704403, 51.5162350194609], [-0.00437431823682927, 51.5164109730052], [-0.00345374955264658, 51.5176144122316], [-0.00259251148183001, 51.5177908748044], [0.00267281270796215, 51.5155173847204], [0.00358902457781944, 51.5145452480198], [0.00356188636295391, 51.5144913816586], [0.00214958790507106, 51.5140672625458], [0.000697912746356145, 51.5128968185029], [-0.00665260924710058, 51.5116037717802], [-0.0209794837095952, 51.5108059985357], [-0.0199860215786379, 51.512281189104], [-0.0219228705157678, 51.512315666241], [-0.0219343031048891, 51.5137816521088], [-0.0244997126091207, 51.5137835262313], [-0.0236743354604435, 51.5145700357048], [-0.0233069857767598, 51.5158983765112], [-0.0216115686658594, 51.51657123087], [-0.0116108222491926, 51.5206890578076], [-0.00907384575132481, 51.522404971813], [-0.0080903401132746, 51.5238353110294], [-0.00786298880813318, 51.5230251459373]]]}, "properties": {"FID": 1139, "WD24CD": "E05009325", "WD24NM": "Lansbury", "WD24NMW": " ", "LAD24CD": "E09000030", "LAD24NM": "Tower Hamlets", "LAD24NMW": " ", "BNG_E": 538149, "BNG_N": 181610, "LONG": -0.01036, "LAT": 51.51653, "Shape__Area": 1269014.4070281982, "Shape__Length": 5979.603222175759, "GlobalID": "bf78adf3-b3cc-4ec1-8d50-7608846049cc"}}, {"type": "Feature", "id": 1140, "geometry": {"type": "Polygon", "coordinates": [[[-0.0364699720187851, 51.5125969451019], [-0.0301270235708929, 51.512399702842], [-0.0281061923329761, 51.5118720896158], [-0.0254904733157021, 51.5097371999451], [-0.0266520572003488, 51.5090040815838], [-0.0272673454975485, 51.5079064657323], [-0.0295271235992875, 51.5079013103394], [-0.0304816827257795, 51.5072778999713], [-0.0304849964279893, 51.50727968676], [-0.0315249534077479, 51.5078404521662], [-0.0298562114227503, 51.5089082057933], [-0.0315983793685159, 51.5082062547118], [-0.0325995369626795, 51.5082422116025], [-0.0331638789618662, 51.5086833344777], [-0.0355854845142226, 51.5090722171108], [-0.0359165918797421, 51.5093817195299], [-0.0373338348756442, 51.5093606623602], [-0.036923055777971, 51.5099785161459], [-0.0378008387660431, 51.5094995917881], [-0.0418828679135341, 51.509784509901], [-0.0418953835703518, 51.5106003919663], [-0.0396949528318025, 51.5113342735833], [-0.038924331487091, 51.5126982392901], [-0.0364699720187851, 51.5125969451019]]]}, "properties": {"FID": 1140, "WD24CD": "E05009326", "WD24NM": "Limehouse", "WD24NMW": " ", "LAD24CD": "E09000030", "LAD24NM": "Tower Hamlets", "LAD24NMW": " ", "BNG_E": 536543, "BNG_N": 180835, "LONG": -0.03379, "LAT": 51.50995, "Shape__Area": 398254.56283569336, "Shape__Length": 3276.012968804714, "GlobalID": "158b853b-a9c8-491c-a0e0-9885fdd53ec4"}}, {"type": "Feature", "id": 1141, "geometry": {"type": "Polygon", "coordinates": [[[-0.023938744655182, 51.5231751518591], [-0.027313657581791, 51.5207355455965], [-0.0237146564515956, 51.5192307300779], [-0.0216115686658594, 51.51657123087], [-0.0233069857767598, 51.5158983765112], [-0.0236743354604435, 51.5145700357048], [-0.0244997126091207, 51.5137835262313], [-0.0219343031048891, 51.5137816521088], [-0.0219228705157678, 51.512315666241], [-0.0199860215786379, 51.512281189104], [-0.0209794837095952, 51.5108059985357], [-0.0281061923329761, 51.5118720896158], [-0.0301270235708929, 51.512399702842], [-0.0364699720187851, 51.5125969451019], [-0.0338281121688077, 51.5161443806982], [-0.0337584000279185, 51.5167610221869], [-0.0361714331043594, 51.5189650808991], [-0.0365414556749362, 51.5232275275998], [-0.0370382095409806, 51.5242483882287], [-0.0301668167030409, 51.526099941476], [-0.0290519094447162, 51.5240767951906], [-0.0252617697577737, 51.5250472277863], [-0.023938744655182, 51.5231751518591]]]}, "properties": {"FID": 1141, "WD24CD": "E05009327", "WD24NM": "Mile End", "WD24NMW": " ", "LAD24CD": "E09000030", "LAD24NM": "Tower Hamlets", "LAD24NMW": " ", "BNG_E": 536885, "BNG_N": 181753, "LONG": -0.02851, "LAT": 51.51812, "Shape__Area": 1206311.7700042725, "Shape__Length": 5801.856144078748, "GlobalID": "f99a96a8-2138-4289-88a6-7222fe946e60"}}, {"type": "Feature", "id": 1142, "geometry": {"type": "Polygon", "coordinates": [[[0.00177541246975129, 51.5109451476781], [-0.00184399453912367, 51.5104706460264], [-0.00383577886633746, 51.5087230048775], [-0.00545069223316993, 51.5079447689016], [-0.0106443987539201, 51.5073485821298], [-0.0107022003817238, 51.5075762117164], [-0.0142484257635963, 51.5074141850694], [-0.0186554878557063, 51.5077738436106], [-0.0241630063026886, 51.5089765529332], [-0.0254904733157021, 51.5097371999451], [-0.0281061923329761, 51.5118720896158], [-0.0209794837095952, 51.5108059985357], [-0.00665260924710058, 51.5116037717802], [0.000697912746356145, 51.5128968185029], [0.00214958790507106, 51.5140672625458], [0.00356188636295391, 51.5144913816586], [0.00177541246975129, 51.5109451476781]]]}, "properties": {"FID": 1142, "WD24CD": "E05009328", "WD24NM": "Poplar", "WD24NMW": " ", "LAD24CD": "E09000030", "LAD24NM": "Tower Hamlets", "LAD24NMW": " ", "BNG_E": 538442, "BNG_N": 181002, "LONG": -0.00638, "LAT": 51.51099, "Shape__Area": 695523.1698074341, "Shape__Length": 5137.766818960597, "GlobalID": "654d5ead-2500-4b41-a0b8-ea1b0a455991"}}, {"type": "Feature", "id": 1143, "geometry": {"type": "Polygon", "coordinates": [[[-0.0364699720187851, 51.5125969451019], [-0.038924331487091, 51.5126982392901], [-0.0418205948534618, 51.5129498947967], [-0.0414576861155756, 51.515729711143], [-0.0426274074511732, 51.5167852598841], [-0.0426850959256503, 51.5177592190215], [-0.0452744563213048, 51.5183500597019], [-0.0449240159032238, 51.5187236893744], [-0.0457999517751003, 51.5196105834041], [-0.0467779698210592, 51.5196268680578], [-0.0475575913409144, 51.5199689672768], [-0.0480122206687192, 51.5206626476377], [-0.0483483000975696, 51.5204883487247], [-0.0492813826967937, 51.5208833320413], [-0.0497866460807926, 51.5207631738255], [-0.0500128985354715, 51.5210699860445], [-0.04088615744126, 51.5226967304464], [-0.0370382095409806, 51.5242483882287], [-0.0365414556749362, 51.5232275275998], [-0.0361714331043594, 51.5189650808991], [-0.0337584000279185, 51.5167610221869], [-0.0338281121688077, 51.5161443806982], [-0.0364699720187851, 51.5125969451019]]]}, "properties": {"FID": 1143, "WD24CD": "E05009329", "WD24NM": "St Dunstan's", "WD24NMW": " ", "LAD24CD": "E09000030", "LAD24NM": "Tower Hamlets", "LAD24NMW": " ", "BNG_E": 535956, "BNG_N": 181873, "LONG": -0.04184, "LAT": 51.51942, "Shape__Area": 681479.95703125, "Shape__Length": 4062.625717623154, "GlobalID": "bd6e2e5d-fce8-4574-8715-d3dbac2ab437"}}, {"type": "Feature", "id": 1144, "geometry": {"type": "Polygon", "coordinates": [[[-0.0418828679135341, 51.509784509901], [-0.0421051650428003, 51.5098000215205], [-0.0460581624606718, 51.5093559848278], [-0.0491298161449178, 51.508009655467], [-0.0496874057492805, 51.5080796308318], [-0.049399673417847, 51.5078491283464], [-0.0504208177582184, 51.5075927312447], [-0.0561632101959565, 51.5038765233909], [-0.0594728183520723, 51.5028732919097], [-0.0596301313710898, 51.5028256030035], [-0.0608433554019432, 51.5028092554399], [-0.0610334749116211, 51.5028991029829], [-0.0616252131681764, 51.503178745338], [-0.0625782171372023, 51.5030978261621], [-0.0651774750084682, 51.5037273445056], [-0.0653468922452096, 51.5034902149182], [-0.0652201063307644, 51.5037380299438], [-0.0680806879647121, 51.5044797987428], [-0.0680677173284664, 51.5048782316212], [-0.0686650569559773, 51.5045363714461], [-0.0705742848704724, 51.5053560313798], [-0.0711860720533719, 51.5051664641414], [-0.0712718534347806, 51.5057793802888], [-0.0737674198171664, 51.5061954226511], [-0.0747585902712177, 51.5067139536333], [-0.0793877065649899, 51.5078026933895], [-0.0794606679760436, 51.5078243089498], [-0.079465009142246, 51.5078255950138], [-0.0787048497474394, 51.5088349370013], [-0.0790716949456976, 51.5090640953625], [-0.078814775941371, 51.5094607319234], [-0.0778556775247856, 51.5100854315985], [-0.0762122515601643, 51.510560386011], [-0.0755174020911968, 51.50973639082], [-0.0745446293087759, 51.5099541982695], [-0.073210675491453, 51.5088863381289], [-0.0713171694634218, 51.5083039135534], [-0.0666075070542945, 51.5093288669447], [-0.0604865061131403, 51.5094444257984], [-0.057497251569506, 51.5097249620374], [-0.0475394865882884, 51.5098131834734], [-0.0418953835703518, 51.5106003919663], [-0.0418828679135341, 51.509784509901]]]}, "properties": {"FID": 1144, "WD24CD": "E05009330", "WD24NM": "St Katharine's & Wapping", "WD24NMW": " ", "LAD24CD": "E09000030", "LAD24NM": "Tower Hamlets", "LAD24NMW": " ", "BNG_E": 534459, "BNG_N": 180441, "LONG": -0.06395, "LAT": 51.50691, "Shape__Area": 1062492.5761184692, "Shape__Length": 6293.19841299083, "GlobalID": "029bf0fa-8547-4fc2-b7fc-079a8e9597a4"}}, {"type": "Feature", "id": 1145, "geometry": {"type": "Polygon", "coordinates": [[[-0.0573019079744903, 51.5344144403849], [-0.0546741067102239, 51.5351554692028], [-0.0528564510841317, 51.534938715867], [-0.0490393631095416, 51.533654145972], [-0.0521932917934931, 51.5303325196952], [-0.0558309543165325, 51.5293192629948], [-0.0548751833310494, 51.5241101732944], [-0.0549626529256037, 51.5230037869881], [-0.0561783309427876, 51.5209646148638], [-0.0576829212567639, 51.5210390044384], [-0.058041550567707, 51.5217581268746], [-0.0612506108612542, 51.5211763798482], [-0.0619876513103762, 51.5236768408502], [-0.0639912291329753, 51.5235795133191], [-0.065388138125534, 51.5297319498025], [-0.0662534489513387, 51.531220072024], [-0.065162284380672, 51.5331551659224], [-0.0650086094858108, 51.5329044572356], [-0.0621901686195596, 51.5332591767432], [-0.0628602310278854, 51.5349187215955], [-0.0624344459546157, 51.5355324975372], [-0.0600733464191528, 51.5341960228764], [-0.0587579357467386, 51.534104763488], [-0.0573019079744903, 51.5344144403849]]]}, "properties": {"FID": 1145, "WD24CD": "E05009331", "WD24NM": "Bethnal Green West", "WD24NMW": " ", "LAD24CD": "E09000030", "LAD24NM": "Tower Hamlets", "LAD24NMW": " ", "BNG_E": 534821, "BNG_N": 182802, "LONG": -0.05784, "LAT": 51.52804, "Shape__Area": 1084037.8265457153, "Shape__Length": 5135.828060535381, "GlobalID": "0396c209-38eb-4374-aa42-37fd68f071a4"}}, {"type": "Feature", "id": 1146, "geometry": {"type": "Polygon", "coordinates": [[[-0.0556964403630103, 51.5143452444187], [-0.0464415101402427, 51.5132094454739], [-0.0418205948534618, 51.5129498947967], [-0.038924331487091, 51.5126982392901], [-0.0396949528318025, 51.5113342735833], [-0.0418953835703518, 51.5106003919663], [-0.0475394865882884, 51.5098131834734], [-0.057497251569506, 51.5097249620374], [-0.0604865061131403, 51.5094444257984], [-0.0618835809077793, 51.514758846103], [-0.0556964403630103, 51.5143452444187]]]}, "properties": {"FID": 1146, "WD24CD": "E05009332", "WD24NM": "Shadwell", "WD24NMW": " ", "LAD24CD": "E09000030", "LAD24NM": "Tower Hamlets", "LAD24NMW": " ", "BNG_E": 535395, "BNG_N": 181023, "LONG": -0.05025, "LAT": 51.51192, "Shape__Area": 627656.0391235352, "Shape__Length": 3847.267262810939, "GlobalID": "c2a19753-320b-4e07-b32b-b6f6b7fcb103"}}, {"type": "Feature", "id": 1147, "geometry": {"type": "Polygon", "coordinates": [[[-0.0561783309427876, 51.5209646148638], [-0.0563504806561444, 51.5198335574931], [-0.0656316698100372, 51.5176992996199], [-0.0740032846027966, 51.5144784652424], [-0.0768720421523466, 51.5166250763039], [-0.078173494433389, 51.5184712040684], [-0.0780990540114851, 51.518978621658], [-0.0794129529519501, 51.5188853300669], [-0.0785291057043016, 51.5215119179615], [-0.0782521040744254, 51.5219025818914], [-0.0764583205438268, 51.5220464712047], [-0.076119965722006, 51.522368978201], [-0.0639912291329753, 51.5235795133191], [-0.0619876513103762, 51.5236768408502], [-0.0612506108612542, 51.5211763798482], [-0.058041550567707, 51.5217581268746], [-0.0576829212567639, 51.5210390044384], [-0.0561783309427876, 51.5209646148638]]]}, "properties": {"FID": 1147, "WD24CD": "E05009333", "WD24NM": "Spitalfields & Banglatown", "WD24NMW": " ", "LAD24CD": "E09000030", "LAD24NM": "Tower Hamlets", "LAD24NMW": " ", "BNG_E": 534011, "BNG_N": 181786, "LONG": -0.06989, "LAT": 51.51911, "Shape__Area": 912257.2652816772, "Shape__Length": 4388.703011106613, "GlobalID": "74c7c92a-93e4-4bc1-96da-e6adecfda35a"}}, {"type": "Feature", "id": 1148, "geometry": {"type": "Polygon", "coordinates": [[[-0.0418205948534618, 51.5129498947967], [-0.0464415101402427, 51.5132094454739], [-0.0556964403630103, 51.5143452444187], [-0.0551424687897552, 51.5176373063017], [-0.0563504806561444, 51.5198335574931], [-0.0500128985354715, 51.5210699860445], [-0.0497866460807926, 51.5207631738255], [-0.0492813826967937, 51.5208833320413], [-0.0483483000975696, 51.5204883487247], [-0.0480122206687192, 51.5206626476377], [-0.0475575913409144, 51.5199689672768], [-0.0467779698210592, 51.5196268680578], [-0.0457999517751003, 51.5196105834041], [-0.0449240159032238, 51.5187236893744], [-0.0452744563213048, 51.5183500597019], [-0.0426850959256503, 51.5177592190215], [-0.0426274074511732, 51.5167852598841], [-0.0414576861155756, 51.515729711143], [-0.0418205948534618, 51.5129498947967]]]}, "properties": {"FID": 1148, "WD24CD": "E05009334", "WD24NM": "Stepney Green", "WD24NMW": " ", "LAD24CD": "E09000030", "LAD24NM": "Tower Hamlets", "LAD24NMW": " ", "BNG_E": 535474, "BNG_N": 181597, "LONG": -0.04889, "LAT": 51.51706, "Shape__Area": 656812.489112854, "Shape__Length": 3381.965592422418, "GlobalID": "adc75bbc-acd1-483e-a602-1f7220525f9b"}}, {"type": "Feature", "id": 1149, "geometry": {"type": "Polygon", "coordinates": [[[-0.0639912291329753, 51.5235795133191], [-0.076119965722006, 51.522368978201], [-0.0757417110885002, 51.523681358418], [-0.0759273904518611, 51.52433907218], [-0.076459965151695, 51.5243182940837], [-0.0766410444439245, 51.5263467521083], [-0.0762971095866288, 51.5271422083987], [-0.0772734871357757, 51.5273053535397], [-0.0757153095558964, 51.5283581942797], [-0.0745753884604118, 51.5298521058624], [-0.0728284472465958, 51.53065700874], [-0.0662534489513387, 51.531220072024], [-0.065388138125534, 51.5297319498025], [-0.0639912291329753, 51.5235795133191]]]}, "properties": {"FID": 1149, "WD24CD": "E05009335", "WD24NM": "Weavers", "WD24NMW": " ", "LAD24CD": "E09000030", "LAD24NM": "Tower Hamlets", "LAD24NMW": " ", "BNG_E": 533942, "BNG_N": 182657, "LONG": -0.07056, "LAT": 51.52695, "Shape__Area": 672312.7761383057, "Shape__Length": 3321.7257642092136, "GlobalID": "b21b9b07-ade0-4942-a1a7-79d9abb85e83"}}, {"type": "Feature", "id": 1150, "geometry": {"type": "Polygon", "coordinates": [[[-0.0556964403630103, 51.5143452444187], [-0.0618835809077793, 51.514758846103], [-0.0604865061131403, 51.5094444257984], [-0.0666075070542945, 51.5093288669447], [-0.0713171694634218, 51.5083039135534], [-0.073210675491453, 51.5088863381289], [-0.0745446293087759, 51.5099541982695], [-0.0728126744795471, 51.5102370516409], [-0.0730520769526355, 51.5118083252744], [-0.0740032846027966, 51.5144784652424], [-0.0656316698100372, 51.5176992996199], [-0.0563504806561444, 51.5198335574931], [-0.0551424687897552, 51.5176373063017], [-0.0556964403630103, 51.5143452444187]]]}, "properties": {"FID": 1150, "WD24CD": "E05009336", "WD24NM": "Whitechapel", "WD24NMW": " ", "LAD24CD": "E09000030", "LAD24NM": "Tower Hamlets", "LAD24NMW": " ", "BNG_E": 534377, "BNG_N": 181187, "LONG": -0.06485, "LAT": 51.51364, "Shape__Area": 957676.3227996826, "Shape__Length": 4699.174157163406, "GlobalID": "fdb8ddb0-80ec-4e1b-8a33-37854785cd3e"}}, {"type": "Feature", "id": 1165, "geometry": {"type": "Polygon", "coordinates": [[[-0.092435360054862, 51.5639164583355], [-0.0916909770539199, 51.5619493632745], [-0.0917168676312077, 51.5602014858924], [-0.0960169171182377, 51.5612154561409], [-0.0985857950207302, 51.560813933077], [-0.0995655128000316, 51.5615627978647], [-0.104373934561655, 51.5647666575849], [-0.104032178579348, 51.5649662454105], [-0.0980757578828272, 51.5691117380091], [-0.0976062804436883, 51.5688673500197], [-0.0980851359901437, 51.5684910710948], [-0.0967653563304927, 51.5681351286987], [-0.0970188777479099, 51.5676249292859], [-0.0964370128236119, 51.5673223168734], [-0.0960747549593684, 51.5676015035435], [-0.0952256609668471, 51.567168592425], [-0.0940745637885908, 51.5671588662875], [-0.092435360054862, 51.5639164583355]]]}, "properties": {"FID": 1165, "WD24CD": "E05009367", "WD24NM": "Brownswood", "WD24NMW": " ", "LAD24CD": "E09000012", "LAD24NM": "Hackney", "LAD24NMW": " ", "BNG_E": 531929, "BNG_N": 186797, "LONG": -0.09801, "LAT": 51.56463, "Shape__Area": 488935.7304763794, "Shape__Length": 3050.110817852017, "GlobalID": "25fe65a4-3fe4-4877-821a-6e92f149d464"}}, {"type": "Feature", "id": 1166, "geometry": {"type": "Polygon", "coordinates": [[[-0.0581532404509935, 51.5630153324369], [-0.0603230349600489, 51.5624766021417], [-0.0645656470844939, 51.562969426432], [-0.066805035627998, 51.5623192593183], [-0.0715986588488782, 51.5628488169606], [-0.0732022671300337, 51.5634138834981], [-0.0730810546601441, 51.5653938418353], [-0.0728370952445815, 51.5702817730519], [-0.0685229548448546, 51.5700992685443], [-0.0685247142779538, 51.5707404692846], [-0.0661135668559031, 51.570734885232], [-0.065287416248901, 51.5710926360803], [-0.0621252044887137, 51.5690656557509], [-0.0604056616630543, 51.5668124482422], [-0.0599623886851039, 51.5647502510853], [-0.0581532404509935, 51.5630153324369]]]}, "properties": {"FID": 1166, "WD24CD": "E05009368", "WD24NM": "Cazenove", "WD24NMW": " ", "LAD24CD": "E09000012", "LAD24NM": "Hackney", "LAD24NMW": " ", "BNG_E": 534174, "BNG_N": 187100, "LONG": -0.06552, "LAT": 51.56682, "Shape__Area": 737034.7098770142, "Shape__Length": 3523.727266448832, "GlobalID": "710597ee-2fe7-4d21-8c08-68d238852069"}}, {"type": "Feature", "id": 1167, "geometry": {"type": "Polygon", "coordinates": [[[-0.0792036019809902, 51.5551357378586], [-0.0794084357343459, 51.5536966381828], [-0.0789999193875267, 51.5526081652482], [-0.0793990012001615, 51.5516726911204], [-0.0819426570954354, 51.5520633100949], [-0.0853985195898088, 51.5521342023458], [-0.0875649412474154, 51.5528447185948], [-0.0885541811426647, 51.5539405275973], [-0.0892863311338298, 51.5537408702373], [-0.0903561415772903, 51.5541514256607], [-0.090396922359362, 51.5575741741988], [-0.0917168676312077, 51.5602014858924], [-0.0916909770539199, 51.5619493632745], [-0.092435360054862, 51.5639164583355], [-0.0917719742061208, 51.5640828513185], [-0.084707353990364, 51.565847953176], [-0.0838247002647506, 51.5642939756297], [-0.0802211347388907, 51.5621189997144], [-0.0801497000170202, 51.5615521743091], [-0.0805704661530385, 51.5614979349594], [-0.0802122181142366, 51.5599983666507], [-0.0811546280524878, 51.5596145551084], [-0.0809533429624485, 51.5577794424011], [-0.07886214592558, 51.5576274018242], [-0.0792036019809902, 51.5551357378586]]]}, "properties": {"FID": 1167, "WD24CD": "E05009369", "WD24NM": "Clissold", "WD24NMW": " ", "LAD24CD": "E09000012", "LAD24NM": "Hackney", "LAD24NMW": " ", "BNG_E": 532799, "BNG_N": 186196, "LONG": -0.08569, "LAT": 51.55902, "Shape__Area": 1022976.6411361694, "Shape__Length": 4449.636615613189, "GlobalID": "04d2913c-e0c2-4798-9d04-1911d02e7746"}}, {"type": "Feature", "id": 1168, "geometry": {"type": "Polygon", "coordinates": [[[-0.0644915603374763, 51.5440691468336], [-0.0760619709853172, 51.5441482633282], [-0.0756742227105447, 51.5461274250229], [-0.0766852527790431, 51.5460865945842], [-0.0763260847021879, 51.5472035730605], [-0.0776773911258274, 51.5494830091827], [-0.0755038059856034, 51.5505094094632], [-0.072537271001463, 51.5511467638804], [-0.0715437409298004, 51.5507302653229], [-0.0685066541480415, 51.5511613825598], [-0.0683306073796505, 51.5499004079598], [-0.0678049624763722, 51.5499142207328], [-0.0676509691133502, 51.5482705449144], [-0.0685973668843192, 51.5481296275508], [-0.0689695791811452, 51.5476520087736], [-0.0652150633421695, 51.5474488639109], [-0.064528301770659, 51.5461614760284], [-0.0638452621015082, 51.546113338578], [-0.0634926621707298, 51.5454492603841], [-0.0646290307686309, 51.5453844180898], [-0.0644915603374763, 51.5440691468336]]]}, "properties": {"FID": 1168, "WD24CD": "E05009370", "WD24NM": "Dalston", "WD24NMW": " ", "LAD24CD": "E09000012", "LAD24NM": "Hackney", "LAD24NMW": " ", "BNG_E": 533880, "BNG_N": 184932, "LONG": -0.07059, "LAT": 51.54741, "Shape__Area": 531295.1296920776, "Shape__Length": 3448.068502265986, "GlobalID": "cd8d5159-547a-4577-a49a-a998e46b4335"}}, {"type": "Feature", "id": 1169, "geometry": {"type": "Polygon", "coordinates": [[[-0.0766852527790431, 51.5460865945842], [-0.0756742227105447, 51.5461274250229], [-0.0760619709853172, 51.5441482633282], [-0.0767151252810623, 51.5390215912902], [-0.0777513107406159, 51.538660847299], [-0.0781532047111421, 51.5366513592932], [-0.0842131350765271, 51.5374925003398], [-0.0865633983715774, 51.5373022716387], [-0.0865615248399922, 51.5373671654901], [-0.0835763215344581, 51.5451729845525], [-0.0837895244222328, 51.5465852346987], [-0.0766852527790431, 51.5460865945842]]]}, "properties": {"FID": 1169, "WD24CD": "E05009371", "WD24NM": "De Beauvoir", "WD24NMW": " ", "LAD24CD": "E09000012", "LAD24NM": "Hackney", "LAD24NMW": " ", "BNG_E": 533166, "BNG_N": 184285, "LONG": -0.08112, "LAT": 51.54176, "Shape__Area": 591813.4607009888, "Shape__Length": 3320.4110004679087, "GlobalID": "054a3a01-2d4d-4b3a-ac68-6fccc6fbbbd5"}}, {"type": "Feature", "id": 1170, "geometry": {"type": "Polygon", "coordinates": [[[-0.0560093856792051, 51.5521742499604], [-0.0549341184172007, 51.5496177911949], [-0.0543671781745343, 51.5497549234383], [-0.0531989034957076, 51.5478938173444], [-0.0519156048576902, 51.5481198183231], [-0.05128760203843, 51.5473224863403], [-0.0550194853702615, 51.54710665438], [-0.0553620300232874, 51.543635684135], [-0.0576867205834531, 51.5433676599141], [-0.0598441561350986, 51.5436434207183], [-0.0625864803899469, 51.5433209885522], [-0.0629136617524671, 51.5441070041801], [-0.0644915603374763, 51.5440691468336], [-0.0646290307686309, 51.5453844180898], [-0.0634926621707298, 51.5454492603841], [-0.0638452621015082, 51.546113338578], [-0.064528301770659, 51.5461614760284], [-0.0652150633421695, 51.5474488639109], [-0.0689695791811452, 51.5476520087736], [-0.0685973668843192, 51.5481296275508], [-0.0676509691133502, 51.5482705449144], [-0.0678049624763722, 51.5499142207328], [-0.0683306073796505, 51.5499004079598], [-0.0685066541480415, 51.5511613825598], [-0.0639184711427403, 51.551903982991], [-0.0561902411568332, 51.5529739519641], [-0.0560093856792051, 51.5521742499604]]]}, "properties": {"FID": 1170, "WD24CD": "E05009372", "WD24NM": "Hackney Central", "WD24NMW": " ", "LAD24CD": "E09000012", "LAD24NM": "Hackney", "LAD24NMW": " ", "BNG_E": 534579, "BNG_N": 185035, "LONG": -0.06047, "LAT": 51.54817, "Shape__Area": 777442.7480545044, "Shape__Length": 4324.9041245457665, "GlobalID": "30686f04-78b7-46b2-9a89-7ae4d5b83232"}}, {"type": "Feature", "id": 1171, "geometry": {"type": "Polygon", "coordinates": [[[-0.0573366355644722, 51.5618291375596], [-0.0558870840400245, 51.5587701456652], [-0.0556826621982143, 51.5565941197763], [-0.0529253296638644, 51.5527849257374], [-0.0560093856792051, 51.5521742499604], [-0.0561902411568332, 51.5529739519641], [-0.0639184711427403, 51.551903982991], [-0.0654321937933003, 51.5533192882186], [-0.0666473223571597, 51.5554849983817], [-0.0681258654493313, 51.555589382228], [-0.0708755978212677, 51.5621714691963], [-0.0715986588488782, 51.5628488169606], [-0.066805035627998, 51.5623192593183], [-0.0645656470844939, 51.562969426432], [-0.0603230349600489, 51.5624766021417], [-0.0581532404509935, 51.5630153324369], [-0.0573366355644722, 51.5618291375596]]]}, "properties": {"FID": 1171, "WD24CD": "E05009373", "WD24NM": "Hackney Downs", "WD24NMW": " ", "LAD24CD": "E09000012", "LAD24NM": "Hackney", "LAD24NMW": " ", "BNG_E": 534426, "BNG_N": 186064, "LONG": -0.06228, "LAT": 51.55745, "Shape__Area": 1017673.222694397, "Shape__Length": 4433.725034220401, "GlobalID": "17ec8cc2-2121-4d90-b4fc-a057a9499c32"}}, {"type": "Feature", "id": 1172, "geometry": {"type": "Polygon", "coordinates": [[[-0.0171740512189124, 51.5516758944393], [-0.0171743352515583, 51.5515772837198], [-0.0189832068446934, 51.5515962324148], [-0.0189355938865919, 51.5505349123489], [-0.0174631458837187, 51.5475982726847], [-0.016549676137034, 51.543329866783], [-0.0198528971615672, 51.543582851157], [-0.0255845560641751, 51.5433389605769], [-0.0289910688237788, 51.5422729755855], [-0.0295535275710296, 51.5430909967655], [-0.0331911146315964, 51.5446857163683], [-0.0377336189286635, 51.5417985078125], [-0.0371437136784512, 51.5414166108775], [-0.0374213185800631, 51.5412814848204], [-0.0473769982058673, 51.5411299655053], [-0.0488419707962055, 51.5416093010684], [-0.0488359225345502, 51.5424931943064], [-0.0483659893721372, 51.5428576658834], [-0.0471809547191921, 51.5435214853206], [-0.046115616963324, 51.5450270504618], [-0.0416709412301208, 51.5452533763061], [-0.0420073810951199, 51.5470593468704], [-0.0401626024557021, 51.5469917157475], [-0.040970474373793, 51.5487353422917], [-0.0333241830306435, 51.5502424855645], [-0.0296443981972262, 51.5516501501783], [-0.021795825962253, 51.5520541981245], [-0.0206329331455013, 51.5517603154015], [-0.0195593077036438, 51.5525659788538], [-0.018492952254811, 51.5518132290681], [-0.0171740512189124, 51.5516758944393]]]}, "properties": {"FID": 1172, "WD24CD": "E05009374", "WD24NM": "Hackney Wick", "WD24NMW": " ", "LAD24CD": "E09000012", "LAD24NM": "Hackney", "LAD24NMW": " ", "BNG_E": 536725, "BNG_N": 184936, "LONG": -0.02958, "LAT": 51.54676, "Shape__Area": 1631961.8656845093, "Shape__Length": 6811.157648158097, "GlobalID": "dfbc5448-6a2c-4d34-8913-43ed2ef05f35"}}, {"type": "Feature", "id": 1173, "geometry": {"type": "Polygon", "coordinates": [[[-0.0624344459546157, 51.5355324975372], [-0.0628602310278854, 51.5349187215955], [-0.0621901686195596, 51.5332591767432], [-0.0650086094858108, 51.5329044572356], [-0.065162284380672, 51.5331551659224], [-0.0662534489513387, 51.531220072024], [-0.0728284472465958, 51.53065700874], [-0.0745753884604118, 51.5298521058624], [-0.0757153095558964, 51.5283581942797], [-0.0778663704130974, 51.5287799614856], [-0.0770515208915054, 51.5314184628608], [-0.0768626776615197, 51.5364809406746], [-0.0781532047111421, 51.5366513592932], [-0.0777513107406159, 51.538660847299], [-0.0767151252810623, 51.5390215912902], [-0.076739125636585, 51.5384185809352], [-0.0731169042031598, 51.5385514199582], [-0.074056917552591, 51.5392044487434], [-0.0702117770685775, 51.5390485511413], [-0.0702420253975858, 51.5387073433888], [-0.0657283325512948, 51.5388469636264], [-0.0659090634910011, 51.5385972389674], [-0.0624946806155886, 51.5366515202746], [-0.0618275362100981, 51.5365712664689], [-0.0624344459546157, 51.5355324975372]]]}, "properties": {"FID": 1173, "WD24CD": "E05009375", "WD24NM": "Haggerston", "WD24NMW": " ", "LAD24CD": "E09000012", "LAD24NM": "Hackney", "LAD24NMW": " ", "BNG_E": 533979, "BNG_N": 183409, "LONG": -0.06974, "LAT": 51.5337, "Shape__Area": 871041.1825637817, "Shape__Length": 4491.980928198623, "GlobalID": "2c5517e6-81c8-4c0d-b16e-0b4927d71500"}}, {"type": "Feature", "id": 1174, "geometry": {"type": "Polygon", "coordinates": [[[-0.0440393790467671, 51.5520113390977], [-0.0420846905187916, 51.5486523360101], [-0.040970474373793, 51.5487353422917], [-0.0401626024557021, 51.5469917157475], [-0.0420073810951199, 51.5470593468704], [-0.0416709412301208, 51.5452533763061], [-0.046115616963324, 51.5450270504618], [-0.0471809547191921, 51.5435214853206], [-0.0483659893721372, 51.5428576658834], [-0.0492703605892661, 51.5432261836867], [-0.0519309567904312, 51.5425913349299], [-0.0552544831701937, 51.5422328818421], [-0.0553620300232874, 51.543635684135], [-0.0550194853702615, 51.54710665438], [-0.05128760203843, 51.5473224863403], [-0.0519156048576902, 51.5481198183231], [-0.0531989034957076, 51.5478938173444], [-0.0543671781745343, 51.5497549234383], [-0.0549341184172007, 51.5496177911949], [-0.0560093856792051, 51.5521742499604], [-0.0529253296638644, 51.5527849257374], [-0.0516595402901987, 51.5513493047851], [-0.0493220943401647, 51.5519040280963], [-0.0490671289217045, 51.5515221182545], [-0.0461207582105992, 51.551811253477], [-0.0460433479677279, 51.5514970201594], [-0.0445365918699469, 51.551649136661], [-0.0440393790467671, 51.5520113390977]]]}, "properties": {"FID": 1174, "WD24CD": "E05009376", "WD24NM": "Homerton", "WD24NMW": " ", "LAD24CD": "E09000012", "LAD24NM": "Hackney", "LAD24NMW": " ", "BNG_E": 535434, "BNG_N": 184955, "LONG": -0.04818, "LAT": 51.54724, "Shape__Area": 802293.3665313721, "Shape__Length": 4696.99343998903, "GlobalID": "92efd635-9577-44fd-9029-fc0bbcf9959e"}}, {"type": "Feature", "id": 1175, "geometry": {"type": "Polygon", "coordinates": [[[-0.0781532047111421, 51.5366513592932], [-0.0768626776615197, 51.5364809406746], [-0.0770515208915054, 51.5314184628608], [-0.0778663704130974, 51.5287799614856], [-0.0757153095558964, 51.5283581942797], [-0.0772734871357757, 51.5273053535397], [-0.0762971095866288, 51.5271422083987], [-0.0766410444439245, 51.5263467521083], [-0.076459965151695, 51.5243182940837], [-0.0759273904518611, 51.52433907218], [-0.0757417110885002, 51.523681358418], [-0.076119965722006, 51.522368978201], [-0.0764583205438268, 51.5220464712047], [-0.0782521040744254, 51.5219025818914], [-0.0785291057043016, 51.5215119179615], [-0.0810408173535679, 51.521973057215], [-0.0817731359017545, 51.5207454012835], [-0.0831233098925708, 51.5198516128431], [-0.0852326450965759, 51.5203483962659], [-0.0842141608271471, 51.5239300155637], [-0.0852014968581625, 51.523944518855], [-0.0851190407648479, 51.5244573079721], [-0.0854635958760204, 51.5245386658991], [-0.0847453063163075, 51.5254292212608], [-0.0850097924274718, 51.5262376352971], [-0.0837152903453545, 51.5265548034559], [-0.0835966285131201, 51.5290708044064], [-0.082918256733914, 51.5305632046945], [-0.0830064075811121, 51.533200444874], [-0.0861994712346385, 51.5331473741407], [-0.0863084019881658, 51.5337471736109], [-0.0876687278494624, 51.5333548429613], [-0.0896889912178029, 51.536043227346], [-0.0865633983715774, 51.5373022716387], [-0.0842131350765271, 51.5374925003398], [-0.0781532047111421, 51.5366513592932]]]}, "properties": {"FID": 1175, "WD24CD": "E05009377", "WD24NM": "Hoxton East & Shoreditch", "WD24NMW": " ", "LAD24CD": "E09000012", "LAD24NM": "Hackney", "LAD24NMW": " ", "BNG_E": 533090, "BNG_N": 182812, "LONG": -0.08277, "LAT": 51.52854, "Shape__Area": 1021449.1410522461, "Shape__Length": 5930.858444887943, "GlobalID": "e46a0761-7b81-4629-96fc-0a497f9dc90d"}}, {"type": "Feature", "id": 1176, "geometry": {"type": "Polygon", "coordinates": [[[-0.0850097924274718, 51.5262376352971], [-0.0869767742512281, 51.525767762695], [-0.0878320627243553, 51.5262417890871], [-0.0887313776452328, 51.5274525128514], [-0.091481256765629, 51.5282085153029], [-0.0953731283192781, 51.5292060090243], [-0.0951040536203394, 51.5300841047485], [-0.0970323369192637, 51.5330033394181], [-0.0931472868596807, 51.5343988062644], [-0.0896889912178029, 51.536043227346], [-0.0876687278494624, 51.5333548429613], [-0.0863084019881658, 51.5337471736109], [-0.0861994712346385, 51.5331473741407], [-0.0830064075811121, 51.533200444874], [-0.082918256733914, 51.5305632046945], [-0.0835966285131201, 51.5290708044064], [-0.0837152903453545, 51.5265548034559], [-0.0850097924274718, 51.5262376352971]]]}, "properties": {"FID": 1176, "WD24CD": "E05009378", "WD24NM": "Hoxton West", "WD24NMW": " ", "LAD24CD": "E09000012", "LAD24NM": "Hackney", "LAD24NMW": " ", "BNG_E": 532581, "BNG_N": 183175, "LONG": -0.08997, "LAT": 51.53193, "Shape__Area": 652347.0409240723, "Shape__Length": 3503.334756890672, "GlobalID": "8d0e1d08-86d4-4943-854e-52bfc2de07f9"}}, {"type": "Feature", "id": 1177, "geometry": {"type": "Polygon", "coordinates": [[[-0.0300395889044704, 51.5613589106994], [-0.0283905349440393, 51.5610202500371], [-0.0257782249314975, 51.5598757347937], [-0.0243386915739582, 51.5586389797272], [-0.0239407737144592, 51.5573697775929], [-0.0230062818046805, 51.5572723913801], [-0.0184641541397368, 51.5551846243824], [-0.0174811722760853, 51.5533409042808], [-0.0171740512189124, 51.5516758944393], [-0.018492952254811, 51.5518132290681], [-0.0195593077036438, 51.5525659788538], [-0.0206329331455013, 51.5517603154015], [-0.021795825962253, 51.5520541981245], [-0.0296443981972262, 51.5516501501783], [-0.0333241830306435, 51.5502424855645], [-0.040970474373793, 51.5487353422917], [-0.0420846905187916, 51.5486523360101], [-0.0440393790467671, 51.5520113390977], [-0.043671280049285, 51.552319052571], [-0.0458784469868655, 51.5568637979605], [-0.0464236431007313, 51.5570015163957], [-0.0442800604317062, 51.5610331428625], [-0.0451297085977058, 51.5617899453013], [-0.0423626660088638, 51.5613681749881], [-0.0401758622424248, 51.5617829852681], [-0.0388197211113053, 51.5611586933099], [-0.0362865933146907, 51.5614752936842], [-0.033285271928068, 51.56061999249], [-0.0300395889044704, 51.5613589106994]]]}, "properties": {"FID": 1177, "WD24CD": "E05009379", "WD24NM": "King's Park", "WD24NMW": " ", "LAD24CD": "E09000012", "LAD24NM": "Hackney", "LAD24NMW": " ", "BNG_E": 536547, "BNG_N": 185855, "LONG": -0.03179, "LAT": 51.55506, "Shape__Area": 1903704.9085006714, "Shape__Length": 6107.62010328411, "GlobalID": "b15969fd-3eb4-4c33-9950-284e1fbbe9bb"}}, {"type": "Feature", "id": 1178, "geometry": {"type": "Polygon", "coordinates": [[[-0.0511449586418684, 51.5677293943477], [-0.0466562946415431, 51.5643767492832], [-0.0472480949832943, 51.5627061120467], [-0.0451297085977058, 51.5617899453013], [-0.0442800604317062, 51.5610331428625], [-0.0464236431007313, 51.5570015163957], [-0.0458784469868655, 51.5568637979605], [-0.043671280049285, 51.552319052571], [-0.0440393790467671, 51.5520113390977], [-0.0445365918699469, 51.551649136661], [-0.0460433479677279, 51.5514970201594], [-0.0461207582105992, 51.551811253477], [-0.0490671289217045, 51.5515221182545], [-0.0493220943401647, 51.5519040280963], [-0.0516595402901987, 51.5513493047851], [-0.0529253296638644, 51.5527849257374], [-0.0556826621982143, 51.5565941197763], [-0.0558870840400245, 51.5587701456652], [-0.0573366355644722, 51.5618291375596], [-0.0564824732093766, 51.5619670046064], [-0.0550841514055068, 51.5631578384812], [-0.0511470697400311, 51.5677302063412], [-0.0511449586418684, 51.5677293943477]]]}, "properties": {"FID": 1178, "WD24CD": "E05009380", "WD24NM": "Lea Bridge", "WD24NMW": " ", "LAD24CD": "E09000012", "LAD24NM": "Hackney", "LAD24NMW": " ", "BNG_E": 535245, "BNG_N": 186292, "LONG": -0.05039, "LAT": 51.5593, "Shape__Area": 1060097.0534744263, "Shape__Length": 4709.468804784949, "GlobalID": "9cf1047b-ee89-47a6-a5e7-d3b95667b927"}}, {"type": "Feature", "id": 1179, "geometry": {"type": "Polygon", "coordinates": [[[-0.0553620300232874, 51.543635684135], [-0.0552544831701937, 51.5422328818421], [-0.0552387820349392, 51.5407407304185], [-0.0570758114262933, 51.5383765299033], [-0.0573019079744903, 51.5344144403849], [-0.0587579357467386, 51.534104763488], [-0.0600733464191528, 51.5341960228764], [-0.0624344459546157, 51.5355324975372], [-0.0618275362100981, 51.5365712664689], [-0.0624946806155886, 51.5366515202746], [-0.0659090634910011, 51.5385972389674], [-0.0657283325512948, 51.5388469636264], [-0.0702420253975858, 51.5387073433888], [-0.0702117770685775, 51.5390485511413], [-0.074056917552591, 51.5392044487434], [-0.0731169042031598, 51.5385514199582], [-0.076739125636585, 51.5384185809352], [-0.0767151252810623, 51.5390215912902], [-0.0760619709853172, 51.5441482633282], [-0.0644915603374763, 51.5440691468336], [-0.0629136617524671, 51.5441070041801], [-0.0625864803899469, 51.5433209885522], [-0.0598441561350986, 51.5436434207183], [-0.0576867205834531, 51.5433676599141], [-0.0553620300232874, 51.543635684135]]]}, "properties": {"FID": 1179, "WD24CD": "E05009381", "WD24NM": "London Fields", "WD24NMW": " ", "LAD24CD": "E09000012", "LAD24NM": "Hackney", "LAD24NMW": " ", "BNG_E": 534176, "BNG_N": 184026, "LONG": -0.06666, "LAT": 51.5392, "Shape__Area": 1023437.6919174194, "Shape__Length": 5116.820857974759, "GlobalID": "a38aefc3-eddb-4569-8080-c2b90bf7ec4d"}}, {"type": "Feature", "id": 1180, "geometry": {"type": "Polygon", "coordinates": [[[-0.0639184711427403, 51.551903982991], [-0.0685066541480415, 51.5511613825598], [-0.0715437409298004, 51.5507302653229], [-0.072537271001463, 51.5511467638804], [-0.0755038059856034, 51.5505094094632], [-0.0776773911258274, 51.5494830091827], [-0.0793990012001615, 51.5516726911204], [-0.0789999193875267, 51.5526081652482], [-0.0794084357343459, 51.5536966381828], [-0.0792036019809902, 51.5551357378586], [-0.0747520353239934, 51.554722757112], [-0.0747015447266744, 51.5549638505679], [-0.0738560753972057, 51.5549652379316], [-0.073632866978162, 51.5545811076243], [-0.0683746403721359, 51.5545170087004], [-0.0690786370599772, 51.5553011321122], [-0.0681258654493313, 51.555589382228], [-0.0666473223571597, 51.5554849983817], [-0.0654321937933003, 51.5533192882186], [-0.0639184711427403, 51.551903982991]]]}, "properties": {"FID": 1180, "WD24CD": "E05009382", "WD24NM": "Shacklewell", "WD24NMW": " ", "LAD24CD": "E09000012", "LAD24NM": "Hackney", "LAD24NMW": " ", "BNG_E": 533782, "BNG_N": 185498, "LONG": -0.07178, "LAT": 51.55252, "Shape__Area": 438045.59465789795, "Shape__Length": 3227.500089630853, "GlobalID": "83d7f02a-faa0-49a4-9403-335df9b764bd"}}, {"type": "Feature", "id": 1181, "geometry": {"type": "Polygon", "coordinates": [[[-0.0511470697400311, 51.5677302063412], [-0.0550841514055068, 51.5631578384812], [-0.0564824732093766, 51.5619670046064], [-0.0573366355644722, 51.5618291375596], [-0.0581532404509935, 51.5630153324369], [-0.0599623886851039, 51.5647502510853], [-0.0604056616630543, 51.5668124482422], [-0.0621252044887137, 51.5690656557509], [-0.065287416248901, 51.5710926360803], [-0.0661135668559031, 51.570734885232], [-0.0685247142779538, 51.5707404692846], [-0.0685229548448546, 51.5700992685443], [-0.0728370952445815, 51.5702817730519], [-0.0726528035865992, 51.5724243987776], [-0.0778560335961843, 51.5730179740805], [-0.0767823219237451, 51.5743213555761], [-0.0762426745972946, 51.5749351956731], [-0.0757836860662353, 51.5754933985396], [-0.0751824535311234, 51.5753300935089], [-0.0744260966437104, 51.5756774803109], [-0.0723920692476494, 51.5756334609508], [-0.0667295655800099, 51.5763428102021], [-0.066748822722587, 51.5766432915364], [-0.0611585720665009, 51.5777860361975], [-0.0584321090167435, 51.5725649127932], [-0.0563161668169224, 51.570711273431], [-0.0543552806678895, 51.5702851597708], [-0.053287507628187, 51.5686590122062], [-0.0511470697400311, 51.5677302063412]]]}, "properties": {"FID": 1181, "WD24CD": "E05009383", "WD24NM": "Springfield", "WD24NMW": " ", "LAD24CD": "E09000012", "LAD24NM": "Hackney", "LAD24NMW": " ", "BNG_E": 534234, "BNG_N": 187889, "LONG": -0.06436, "LAT": 51.5739, "Shape__Area": 1206084.275024414, "Shape__Length": 6001.065631884522, "GlobalID": "b0aaf324-6897-4ede-906f-fe3e7a3ddeb1"}}, {"type": "Feature", "id": 1182, "geometry": {"type": "Polygon", "coordinates": [[[-0.0767823219237451, 51.5743213555761], [-0.0778560335961843, 51.5730179740805], [-0.0726528035865992, 51.5724243987776], [-0.0728370952445815, 51.5702817730519], [-0.0730810546601441, 51.5653938418353], [-0.0744204904523936, 51.5655543078133], [-0.0763262617606658, 51.5667942343624], [-0.0784651441063105, 51.5672276774615], [-0.084707353990364, 51.565847953176], [-0.0917719742061208, 51.5640828513185], [-0.0918339212294388, 51.5652924808026], [-0.0881305126932795, 51.5676582588058], [-0.0877846474247927, 51.5695401583745], [-0.0840909696381469, 51.570046382054], [-0.0831980202509634, 51.5706585647315], [-0.0829928196148476, 51.571351215739], [-0.082286762569478, 51.5713603412286], [-0.0811669511543689, 51.5701604505205], [-0.0797228053494725, 51.570530648581], [-0.0800273740486405, 51.5716587638471], [-0.0785898028128432, 51.5746477639427], [-0.0767823219237451, 51.5743213555761]]]}, "properties": {"FID": 1182, "WD24CD": "E05009384", "WD24NM": "Stamford Hill West", "WD24NMW": " ", "LAD24CD": "E09000012", "LAD24NM": "Hackney", "LAD24NMW": " ", "BNG_E": 533145, "BNG_N": 187347, "LONG": -0.08027, "LAT": 51.56928, "Shape__Area": 683143.245223999, "Shape__Length": 4802.731934189631, "GlobalID": "827fc2b3-49fa-4859-a11c-0af79a0ee70b"}}, {"type": "Feature", "id": 1183, "geometry": {"type": "Polygon", "coordinates": [[[-0.0730810546601441, 51.5653938418353], [-0.0732022671300337, 51.5634138834981], [-0.0715986588488782, 51.5628488169606], [-0.0708755978212677, 51.5621714691963], [-0.0681258654493313, 51.555589382228], [-0.0690786370599772, 51.5553011321122], [-0.0683746403721359, 51.5545170087004], [-0.073632866978162, 51.5545811076243], [-0.0738560753972057, 51.5549652379316], [-0.0747015447266744, 51.5549638505679], [-0.0747520353239934, 51.554722757112], [-0.0792036019809902, 51.5551357378586], [-0.07886214592558, 51.5576274018242], [-0.0809533429624485, 51.5577794424011], [-0.0811546280524878, 51.5596145551084], [-0.0802122181142366, 51.5599983666507], [-0.0805704661530385, 51.5614979349594], [-0.0801497000170202, 51.5615521743091], [-0.0802211347388907, 51.5621189997144], [-0.0838247002647506, 51.5642939756297], [-0.084707353990364, 51.565847953176], [-0.0784651441063105, 51.5672276774615], [-0.0763262617606658, 51.5667942343624], [-0.0744204904523936, 51.5655543078133], [-0.0730810546601441, 51.5653938418353]]]}, "properties": {"FID": 1183, "WD24CD": "E05009385", "WD24NM": "Stoke Newington", "WD24NMW": " ", "LAD24CD": "E09000012", "LAD24NM": "Hackney", "LAD24NMW": " ", "BNG_E": 533437, "BNG_N": 186411, "LONG": -0.07641, "LAT": 51.5608, "Shape__Area": 953836.9423065186, "Shape__Length": 4576.931276759272, "GlobalID": "38e1078c-04aa-4764-80bd-2787b1a21c07"}}, {"type": "Feature", "id": 1184, "geometry": {"type": "Polygon", "coordinates": [[[-0.0483659893721372, 51.5428576658834], [-0.0488359225345502, 51.5424931943064], [-0.0488419707962055, 51.5416093010684], [-0.0473769982058673, 51.5411299655053], [-0.0374213185800631, 51.5412814848204], [-0.0407379137152159, 51.5381186562258], [-0.0414935933938469, 51.5374425614696], [-0.0449632628777945, 51.5357814762523], [-0.0471597768522713, 51.5354487752517], [-0.0497007576085603, 51.5363466092268], [-0.05091293600747, 51.5364617048636], [-0.0523769045393786, 51.5359310318297], [-0.0528564510841317, 51.534938715867], [-0.0546741067102239, 51.5351554692028], [-0.0573019079744903, 51.5344144403849], [-0.0570758114262933, 51.5383765299033], [-0.0552387820349392, 51.5407407304185], [-0.0552544831701937, 51.5422328818421], [-0.0519309567904312, 51.5425913349299], [-0.0492703605892661, 51.5432261836867], [-0.0483659893721372, 51.5428576658834]]]}, "properties": {"FID": 1184, "WD24CD": "E05009386", "WD24NM": "Victoria", "WD24NMW": " ", "LAD24CD": "E09000012", "LAD24NM": "Hackney", "LAD24NMW": " ", "BNG_E": 535437, "BNG_N": 184009, "LONG": -0.0485, "LAT": 51.53874, "Shape__Area": 763230.5684204102, "Shape__Length": 4182.891235108072, "GlobalID": "c63cb844-e7f3-4c25-b7a5-ae34efd9a325"}}, {"type": "Feature", "id": 1185, "geometry": {"type": "Polygon", "coordinates": [[[-0.0762426745972946, 51.5749351956731], [-0.0767823219237451, 51.5743213555761], [-0.0785898028128432, 51.5746477639427], [-0.0800273740486405, 51.5716587638471], [-0.0797228053494725, 51.570530648581], [-0.0811669511543689, 51.5701604505205], [-0.082286762569478, 51.5713603412286], [-0.0829928196148476, 51.571351215739], [-0.0831980202509634, 51.5706585647315], [-0.0840909696381469, 51.570046382054], [-0.0877846474247927, 51.5695401583745], [-0.0881305126932795, 51.5676582588058], [-0.0918339212294388, 51.5652924808026], [-0.0917719742061208, 51.5640828513185], [-0.092435360054862, 51.5639164583355], [-0.0940745637885908, 51.5671588662875], [-0.0952256609668471, 51.567168592425], [-0.0960747549593684, 51.5676015035435], [-0.0964370128236119, 51.5673223168734], [-0.0970188777479099, 51.5676249292859], [-0.0967653563304927, 51.5681351286987], [-0.0980851359901437, 51.5684910710948], [-0.0976062804436883, 51.5688673500197], [-0.0980757578828272, 51.5691117380091], [-0.096023376744274, 51.5706553440658], [-0.0976349831401733, 51.5736455908192], [-0.0966009832537768, 51.573828964805], [-0.0946948311947085, 51.5735893456716], [-0.0934811739312744, 51.5739846884708], [-0.0914414525828898, 51.5739917845648], [-0.0898107494380284, 51.5743959732118], [-0.0868585169768278, 51.5743001604632], [-0.0872433567598026, 51.5746975858542], [-0.0856588290596378, 51.5750401010783], [-0.0808384261736449, 51.5756394662243], [-0.0762426745972946, 51.5749351956731]]]}, "properties": {"FID": 1185, "WD24CD": "E05009387", "WD24NM": "Woodberry Down", "WD24NMW": " ", "LAD24CD": "E09000012", "LAD24NM": "Hackney", "LAD24NMW": " ", "BNG_E": 532387, "BNG_N": 187390, "LONG": -0.09118, "LAT": 51.56985, "Shape__Area": 869075.1144485474, "Shape__Length": 5253.656605037009, "GlobalID": "4379d545-0d4d-4382-949a-5c73eeb3b16d"}}]}